[{"OBJECT_NAME":"ONEWEB-0717","OBJECT_ID":"2023-004AQ","EPOCH":"2026-03-09T22:21:29.116800","MEAN_MOTION":13.17648959,"ECCENTRICITY":0.00019704,"INCLINATION":87.916,"RA_OF_ASC_NODE":25.5567,"ARG_OF_PERICENTER":59.5364,"MEAN_ANOMALY":300.5962,"EPHEMERIS_TYPE":0,"CLASSIFICATION_TYPE":"U","NORAD_CAT_ID":55178,"ELEMENT_SET_NO":999,"REV_AT_EPOCH":15456,"BSTAR":9.1849263e-5,"MEAN_MOTION_DOT":4.9e-7,"MEAN_MOTION_DDOT":0},{"OBJECT_NAME":"OPS 4682 DEB","OBJECT_ID":"1965-027D","EPOCH":"2026-03-09T22:50:18.506976","MEAN_MOTION":13.14636756,"ECCENTRICITY":0.00216128,"INCLINATION":89.8629,"RA_OF_ASC_NODE":220.946,"ARG_OF_PERICENTER":59.3785,"MEAN_ANOMALY":61.536,"EPHEMERIS_TYPE":0,"CLASSIFICATION_TYPE":"U","NORAD_CAT_ID":1389,"ELEMENT_SET_NO":999,"REV_AT_EPOCH":89764,"BSTAR":0.0020373573,"MEAN_MOTION_DOT":7.67e-6,"MEAN_MOTION_DDOT":0}]
